QIANFAN-89              
1 63175U 25046S   25283.92171951  .00000166  00000+0  23939-3 0  9995
2 63175  88.9803 326.5386 0014601 311.5237  48.4660 13.50968599 38922
QIANFAN-90              
1 63176U 25046T   25283.95046068  .00000127  00000+0  17883-3 0  9997
2 63176  88.9800 326.5080 0011514 310.4266  49.5880 13.50970609 38944
